{
  "norad_id": 49810,
  "name": "GSAT0224 (GALILEO 28)",
  "history": [
    {
      "epoch": "2026-03-24T01:06:44.149248Z",
      "apogee_km": 23225.854336692355,
      "perigee_km": 23218.234657971312,
      "latitude_deg": 0.31963363096790304,
      "longitude_deg": -34.43166877431098,
      "height_km": 23224.785494009495,
      "semi_major_axis_km": 29600.181497331832,
      "eccentricity": 0.00012871,
      "inclination_deg": 57.188,
      "raan_deg": 343.9758,
      "arg_perigee_deg": 309.9434,
      "mean_anomaly_deg": 229.6785,
      "mean_motion_rev_day": 1.70475197
    }
  ]
}